KUIPER-00095            
1 65134U 25171C   25238.75417255  .00017020  00000+0  50039-3 0  9990
2 65134  51.8769 331.2805 0004783 202.6783 157.3993 15.35197064  3594
KUIPER-00096            
1 65135U 25171D   25238.75189330  .00016542  00000+0  48311-3 0  9999
2 65135  51.8765 331.2646 0004750 191.4406 168.6473 15.35429710  3599
KUIPER-00097            
1 65136U 25171E   25238.75482959  .00014421  00000+0  42674-3 0  9993
2 65136  51.8768 331.2856 0004838 205.9407 154.1337 15.35127988  3585
KUIPER-00098            
1 65137U 25171F   25238.74767643  .00029472  00000+0  84066-3 0  9992
2 65137  51.8772 331.2404 0005738 175.7885 184.3150 15.35797719  2935
KUIPER-00099            
1 65138U 25171G   25238.74939186  .00022839  00000+0  65694-3 0  9992
2 65138  51.8774 331.2535 0005445 179.0499 181.0498 15.35681488  3582
KUIPER-00100            
1 65139U 25171H   25238.75111564  .00023764  00000+0  68688-3 0  9990
2 65139  51.8767 331.2587 0005196 186.9128 173.1787 15.35506202  3584
KUIPER-00102            
1 65140U 25171J   25238.75407687  .00015948  00000+0  46992-3 0  9995
2 65140  51.8764 331.2783 0004593 198.6615 161.4203 15.35178441  3585
KUIPER-00103            
1 65141U 25171K   25238.75250133  .00020274  00000+0  59028-3 0  9990
2 65141  51.8765 331.2677 0004702 193.6229 166.4631 15.35379967  3583
